{"type": "FeatureCollection", "features": [ {"type": "Feature", "properties": {"norad_id": 66910, "name": "1998-067XW", "group": "stations", "lat": -21.041404583990833, "lon": -0.8084256478987629, "alt_km": 412.7005691795339, "timestamp": "2025-12-08T21:31:03.464726+00:00", "meta": {"OBJECT_NAME": "1998-067XW", "OBJECT_ID": "1998-067XW", "EPOCH": "2025-12-08T12:53:48.654816", "MEAN_MOTION": 15.51059789, "ECCENTRICITY": 0.0005881, "INCLINATION": 51.6294, "RA_OF_ASC_NODE": 163.229, "ARG_OF_PERICENTER": 187.8231, "MEAN_ANOMALY": 172.2667, "EPHEMERIS_TYPE": 0, "CLASSIFICATION_TYPE": "U", "NORAD_CAT_ID": 66910, "ELEMENT_SET_NO": 999, "REV_AT_EPOCH": 96, "BSTAR": 0.0011382516, "MEAN_MOTION_DOT": 0.00067606, "MEAN_MOTION_DDOT": 0}, "tle": {"line1": "1 66910U 98067XW  25342.53736869  .00067606  00000+0  11383-2 0  9997", "line2": "2 66910  51.6294 163.2290 0005881 187.8231 172.2667 15.51059789   962"}}, "geometry": {"type": "Point", "coordinates": [-0.8084256478987629, -21.041404583990833]}}, {"type": "Feature", "properties": {"norad_id": 66911, "name": "1998-067XX", "group": "stations", "lat": -22.048980263875983, "lon": 0.16050150255058132, "alt_km": 412.4837822629297, "timestamp": "2025-12-08T21:31:03.464736+00:00", "meta": {"OBJECT_NAME": "1998-067XX", "OBJECT_ID": "1998-067XX", "EPOCH": "2025-12-08T12:53:30.248160", "MEAN_MOTION": 15.51182897, "ECCENTRICITY": 0.00057745, "INCLINATION": 51.6292, "RA_OF_ASC_NODE": 163.2276, "ARG_OF_PERICENTER": 188.5906, "MEAN_ANOMALY": 171.4985, "EPHEMERIS_TYPE": 0, "CLASSIFICATION_TYPE": "U", "NORAD_CAT_ID": 66911, "ELEMENT_SET_NO": 999, "REV_AT_EPOCH": 95, "BSTAR": 0.0013146958, "MEAN_MOTION_DOT": 0.00078611, "MEAN_MOTION_DDOT": 0}, "tle": {"line1": "1 66911U 98067XX  25342.53715565  .00078611  00000+0  13147-2 0  9996", "line2": "2 66911  51.6292 163.2276 0005774 188.5906 171.4985 15.51182897   953"}}, "geometry": {"type": "Point", "coordinates": [0.16050150255058132, -22.048980263875983]}}, {"type": "Feature", "properties": {"norad_id": 66912, "name": "1998-067XY", "group": "stations", "lat": -13.565553386551567, "lon": -7.512698240135056, "alt_km": 413.9056103422163, "timestamp": "2025-12-08T21:31:03.464746+00:00", "meta": {"OBJECT_NAME": "1998-067XY", "OBJECT_ID": "1998-067XY", "EPOCH": "2025-12-08T12:56:10.446720", "MEAN_MOTION": 15.50562225, "ECCENTRICITY": 0.00050041, "INCLINATION": 51.6298, "RA_OF_ASC_NODE": 163.24, "ARG_OF_PERICENTER": 201.6566, "MEAN_ANOMALY": 158.4212, "EPHEMERIS_TYPE": 0, "CLASSIFICATION_TYPE": "U", "NORAD_CAT_ID": 66912, "ELEMENT_SET_NO": 999, "REV_AT_EPOCH": 95, "BSTAR": 0.00094066396, "MEAN_MOTION_DOT": 0.00054705, "MEAN_MOTION_DDOT": 0}, "tle": {"line1": "1 66912U 98067XY  25342.53900980  .00054705  00000+0  94066-3 0  9992", "line2": "2 66912  51.6298 163.2400 0005004 201.6566 158.4212 15.50562225   958"}}, "geometry": {"type": "Point", "coordinates": [-7.512698240135056, -13.565553386551567]}}]}